ONEWEB-0158             
1 48054U 21025N   25337.35190120  .00000234  00000+0  60710-3 0  9997
2 48054  87.8990 359.1334 0002077  93.5181 266.6186 13.13470518227925
ONEWEB-0157             
1 48055U 21025P   25337.30111637  .00000144  00000+0  35902-3 0  9994
2 48055  87.8989 359.1500 0001502  81.8810 278.2489 13.13469021227854
ONEWEB-0162             
1 48056U 21025Q   25337.35345402  .00000271  00000+0  70673-3 0  9994
2 48056  87.8993 359.1414 0001598  96.1652 263.9659 13.13471755227837
ONEWEB-0155             
1 48057U 21025R   25337.36036018  .00000295  00000+0  77398-3 0  9993
2 48057  87.8989 359.1450 0001783  87.3188 272.8145 13.13471692227979
ONEWEB-0149             
1 48058U 21025S   25337.07765680 -.00000006  00000+0 -50745-4 0  9996
2 48058  87.8989 359.1953 0001579  98.5611 261.5697 13.13470584227747
ONEWEB-0148             
1 48059U 21025T   25337.34512787  .00000040  00000+0  75488-4 0  9992
2 48059  87.8982 359.1621 0001214 105.2673 254.8591 13.13470713227903
ONEWEB-0160             
1 48060U 21025U   25337.13352979  .00000364  00000+0  96143-3 0  9995
2 48060  87.8982 359.2016 0002449 103.9372 256.2029 13.13470600227824
ONEWEB-0163             
1 48061U 21025V   25337.11827284  .00000106  00000+0  25448-3 0  9994
2 48061  87.8990 359.1901 0001585  84.2398 275.8912 13.13468197227944
